GLOBALSTAR M075         
1 37192U 10054E   24238.11918814 -.00000076  00000+0  15637-3 0  9992
2 37192  51.9975   2.9999 0000672  95.3421  76.4365 12.62263338638988
GLOBALSTAR M073         
1 37193U 10054F   24237.88174806 -.00000078  00000+0  14570-3 0  9998
2 37193  52.0050 277.3193 0000466 102.1119  69.6648 12.62268702640410
GLOBALSTAR M083         
1 37739U 11033A   24237.73627183 -.00000105  00000+0 -94582-5 0  9992
2 37739  51.9843 226.8947 0000183  20.4455 151.2083 12.62263520609410
GLOBALSTAR M088         
1 37740U 11033B   24237.92699715 -.00000079  00000+0  14095-3 0  9993
2 37740  51.9729 132.0535 0000617  42.0878  37.2882 12.62266529604986
GLOBALSTAR M091         
1 37741U 11033C   24237.92600258 -.00000089  00000+0  82793-4 0  9990
2 37741  51.9993  95.0842 0000615  45.1470 327.9060 12.62266181605778
GLOBALSTAR M085         
1 37742U 11033D   24237.75416579 -.00000106  00000+0 -13884-4 0  9999
2 37742  51.9877  46.9048 0000632  71.1235 302.0735 12.62264717606261
GLOBALSTAR M081         
1 37743U 11033E   24238.21114029 -.00000101  00000+0  13642-4 0  9993
2 37743  51.9969  48.1179 0000857  62.9264 107.5517 12.62268413606849
GLOBALSTAR M089         
1 37744U 11033F   24237.85492972 -.00000089  00000+0  80848-4 0  9996
2 37744  51.9954   3.4891 0001087  95.7720  73.6671 12.62267330607264
